NORAD_CAT_ID,OBJECT_NAME,OBJECT_TYPE,EPOCH,MEAN_MOTION,ECCENTRICITY,INCLINATION,RA_OF_ASC_NODE,ARG_OF_PERICENTER,MEAN_ANOMALY,BSTAR,MEAN_MOTION_DOT,MEAN_MOTION_DDOT,TLE_LINE0,TLE_LINE1,TLE_LINE2,SEMIMAJOR_AXIS,PERIOD,APOGEE,PERIGEE,DECAYED
55654.0,STARLINK-5070,PAYLOAD,2023-11-26 11:58:23,14.98334515,0.0002707,69.9994,127.9142,260.1926,99.8928,1.3154e-07,-9.1e-07,0.0,0 STARLINK-5070,1 55654U 23021AC  23330.49887871 -.00000091  00000-0  13154-6 0  9997,2 55654  69.9994 127.9142 0002707 260.1926  99.8928 14.98334515 43534,6950.179,96.107,573.925,570.163,0.0
55654.0,STARLINK-5070,PAYLOAD,2023-11-26 13:34:31,14.98334343,0.0002712,69.9994,127.7459,260.3194,99.7659,-1.815e-06,-1.15e-06,0.0,0 STARLINK-5070,1 55654U 23021AC  23330.56563862 -.00000115  00000-0 -18150-5 0  9994,2 55654  69.9994 127.7459 0002712 260.3194  99.7659 14.98334343 43841,6950.179,96.107,573.929,570.16,0.0
55654.0,STARLINK-5070,PAYLOAD,2023-11-26 19:59:03,14.98328401,0.0003377,69.9981,127.0714,272.3332,87.744,-0.00010281,-1.32e-05,0.0,0 STARLINK-5070,1 55654U 23021AC  23330.83268482 -.00001320  00000-0 -10281-3 0  9998,2 55654  69.9981 127.0714 0003377 272.3332  87.7440 14.98328401 43583,6950.198,96.107,574.41,569.716,0.0
55654.0,STARLINK-5070,PAYLOAD,2023-11-27 13:36:33,14.98325611,0.0002826,69.9987,125.2193,267.8376,92.2459,-8.9004e-05,-1.155e-05,0.0,0 STARLINK-5070,1 55654U 23021AC  23331.56704870 -.00001155  00000-0 -89004-4 0  9991,2 55654  69.9987 125.2193 0002826 267.8376  92.2459 14.98325611 43991,6950.206,96.107,574.036,570.107,0.0
55654.0,STARLINK-5070,PAYLOAD,2023-11-27 18:24:56,14.98330107,0.000236,70.0021,124.72,221.295,138.8031,2.7748e-05,2.38e-06,0.0,0 STARLINK-5070,1 55654U 23021AC  23331.76732243  .00000238  00000-0  27748-4 0  9994,2 55654  70.0021 124.7200 0002360 221.2950 138.8031 14.98330107 43721,6950.193,96.107,573.698,570.417,0.0
55654.0,STARLINK-5070,PAYLOAD,2023-11-28 12:02:24,14.98377041,0.0002383,70.0007,122.8704,236.1038,123.9895,-0.00064887,-7.836e-05,0.0,0 STARLINK-5070,1 55654U 23021AC  23332.50167127 -.00007836  00000-0 -64887-3 0  9997,2 55654  70.0007 122.8704 0002383 236.1038 123.9895 14.98377041 43833,6950.047,96.104,573.569,570.256,0.0
55654.0,STARLINK-5070,PAYLOAD,2023-11-28 13:38:32,14.98332338,0.0002933,70.0001,122.7006,261.7106,98.372,6.1105e-05,6.36e-06,0.0,0 STARLINK-5070,1 55654U 23021AC  23332.56843607  .00000636  00000-0  61105-4 0  9997,2 55654  70.0001 122.7006 0002933 261.7106  98.3720 14.98332338 44149,6950.186,96.107,574.089,570.012,0.0
55654.0,STARLINK-5070,PAYLOAD,2023-11-28 20:03:04,14.983591,0.0002957,69.9987,122.0248,261.1108,98.9716,-0.00043866,-5.327e-05,0.0,0 STARLINK-5070,1 55654U 23021AC  23332.83547026 -.00005327  00000-0 -43866-3 0  9990,2 55654  69.9987 122.0248 0002957 261.1108  98.9716 14.98359100 43889,6950.103,96.105,574.023,569.913,0.0
55654.0,STARLINK-5070,PAYLOAD,2023-11-29 12:04:26,14.98328409,0.0002839,70.0,120.341,266.7628,93.3206,1.9384e-05,1.38e-06,0.0,0 STARLINK-5070,1 55654U 23021AC  23333.50308100  .00000138  00000-0  19384-4 0  9995,2 55654  70.0000 120.3410 0002839 266.7628  93.3206 14.98328409 43989,6950.198,96.107,574.036,570.09,0.0
55654.0,STARLINK-5070,PAYLOAD,2023-11-29 13:40:34,14.98328293,0.0002866,69.9999,120.1728,266.1838,93.8993,1.5161e-05,8.8e-07,0.0,0 STARLINK-5070,1 55654U 23021AC  23333.56984117  .00000088  00000-0  15161-4 0  9992,2 55654  69.9999 120.1728 0002866 266.1838  93.8993 14.98328293 44294,6950.198,96.107,574.055,570.071,0.0
55654.0,STARLINK-5070,PAYLOAD,2023-11-30 12:06:27,14.98327127,0.0002889,70.0003,117.816,272.5486,87.5342,2.4784e-05,2.03e-06,0.0,0 STARLINK-5070,1 55654U 23021AC  23334.50447969  .00000203  00000-0  24784-4 0  9996,2 55654  70.0003 117.8160 0002889 272.5486  87.5342 14.98327127 44137,6950.202,96.107,574.075,570.059,0.0
55654.0,STARLINK-5070,PAYLOAD,2023-12-01 12:08:27,14.98329114,0.0002713,70.0005,115.2913,266.8914,93.1935,9.1663e-06,1.6e-07,0.0,0 STARLINK-5070,1 55654U 23021AC  23335.50587902  .00000016  00000-0  91663-5 0  9992,2 55654  70.0005 115.2913 0002713 266.8914  93.1935 14.98329114 44280,6950.196,96.107,573.946,570.175,0.0
55654.0,STARLINK-5070,PAYLOAD,2023-12-01 18:32:59,14.98332152,0.0002662,70.0006,114.618,266.6774,93.4081,4.5195e-05,4.46e-06,0.0,0 STARLINK-5070,1 55654U 23021AC  23335.77291601  .00000446  00000-0  45195-4 0  9994,2 55654  70.0006 114.6180 0002662 266.6774  93.4081 14.98332152 44624,6950.186,96.107,573.901,570.201,0.0
55654.0,STARLINK-5070,PAYLOAD,2023-12-02 12:10:28,14.98336277,0.0002742,70.0004,112.7663,261.0887,98.9961,7.1054e-05,7.55e-06,0.0,0 STARLINK-5070,1 55654U 23021AC  23336.50726932  .00000755  00000-0  71054-4 0  9992,2 55654  70.0004 112.7663 0002742 261.0887  98.9961 14.98336277 44438,6950.173,96.107,573.944,570.133,0.0
55654.0,STARLINK-5070,PAYLOAD,2023-12-02 13:46:36,14.98336125,0.0002738,70.0004,112.598,261.1244,98.9605,6.844e-05,7.24e-06,0.0,0 STARLINK-5070,1 55654U 23021AC  23336.57402915  .00000724  00000-0  68440-4 0  9992,2 55654  70.0004 112.5980 0002738 261.1244  98.9605 14.98336125 44742,6950.174,96.107,573.942,570.136,0.0
55654.0,STARLINK-5070,PAYLOAD,2023-12-02 18:34:59,14.98339186,0.0002703,70.0004,112.0928,257.4433,102.6424,9.9627e-05,1.096e-05,0.0,0 STARLINK-5070,1 55654U 23021AC  23336.77430514  .00001096  00000-0  99627-4 0  9994,2 55654  70.0004 112.0928 0002703 257.4433 102.6424 14.98339186 44774,6950.164,96.106,573.908,570.151,0.0
55654.0,STARLINK-5070,PAYLOAD,2023-12-03 12:12:31,14.9831077,0.0003108,69.9994,110.2404,265.6878,94.3926,-0.00024684,-3.036e-05,0.0,0 STARLINK-5070,1 55654U 23021AC  23337.50869695 -.00003036  00000-0 -24684-3 0  9990,2 55654  69.9994 110.2404 0003108 265.6878  94.3926 14.98310770 44583,6950.252,96.108,574.277,569.957,0.0
55654.0,STARLINK-5070,PAYLOAD,2023-12-03 13:48:39,14.98308499,0.0002602,70.0015,110.0751,245.9043,114.1844,-0.00021142,-2.613e-05,0.0,0 STARLINK-5070,1 55654U 23021AC  23337.57545828 -.00002613  00000-0 -21142-3 0  9992,2 55654  70.0015 110.0751 0002602 245.9043 114.1844 14.98308499 44895,6950.259,96.108,573.933,570.316,0.0
55654.0,STARLINK-5070,PAYLOAD,2023-12-04 12:14:32,14.98317838,0.0003058,69.9993,107.7121,269.3303,90.7506,-0.00010425,-1.336e-05,0.0,0 STARLINK-5070,1 55654U 23021AC  23338.51009782 -.00001336  00000-0 -10425-3 0  9994,2 55654  69.9993 107.7121 0003058 269.3303  90.7506 14.98317838 44730,6950.231,96.108,574.221,569.97,0.0
55654.0,STARLINK-5070,PAYLOAD,2023-12-04 18:39:04,14.98324096,0.0002705,70.0001,107.0416,259.6988,100.3866,-7.4544e-05,-9.82e-06,0.0,0 STARLINK-5070,1 55654U 23021AC  23338.77713505 -.00000982  00000-0 -74544-4 0  9996,2 55654  70.0001 107.0416 0002705 259.6988 100.3866 14.98324096 45071,6950.211,96.107,573.956,570.196,0.0
55654.0,STARLINK-5070,PAYLOAD,2023-12-05 12:16:32,14.98323689,0.0003236,69.9992,105.1896,266.65,93.4289,0.0003417,3.986e-05,0.0,0 STARLINK-5070,1 55654U 23021AC  23339.51148594  .00003986  00000-0  34170-3 0  9994,2 55654  69.9992 105.1896 0003236 266.6500  93.4289 14.98323689 44882,6950.212,96.107,574.326,569.828,0.0
55654.0,STARLINK-5070,PAYLOAD,2023-12-06 10:42:24,14.98341828,0.0003463,69.9986,102.8333,267.0866,92.9897,0.00011544,1.285e-05,0.0,0 STARLINK-5070,1 55654U 23021AC  23340.44611952  .00001285  00000-0  11544-3 0  9991,2 55654  69.9986 102.8333 0003463 267.0866  92.9897 14.98341828 45028,6950.156,96.106,574.428,569.614,0.0
55654.0,STARLINK-5070,PAYLOAD,2023-12-06 12:18:32,14.98341747,0.000346,69.9986,102.6649,266.7886,93.2877,0.00011184,1.242e-05,0.0,0 STARLINK-5070,1 55654U 23021AC  23340.51287905  .00001242  00000-0  11184-3 0  9999,2 55654  69.9986 102.6649 0003460 266.7886  93.2877 14.98341747 45337,6950.157,96.106,574.426,569.617,0.0
55654.0,STARLINK-5070,PAYLOAD,2023-12-07 12:20:33,14.98338461,0.0002965,69.9998,100.1413,255.4756,104.6075,-0.00012508,-1.585e-05,0.0,0 STARLINK-5070,1 55654U 23021AC  23341.51428111 -.00001585  00000-0 -12508-3 0  9999,2 55654  69.9998 100.1413 0002965 255.4756 104.6075 14.98338461 45181,6950.167,96.106,574.092,569.971,0.0
55654.0,STARLINK-5070,PAYLOAD,2023-12-08 12:22:34,14.98331802,0.0002673,70.001,97.6178,248.127,111.9604,-5.8061e-05,-7.86e-06,0.0,0 STARLINK-5070,1 55654U 23021AC  23342.51567882 -.00000786  00000-0 -58061-4 0  9996,2 55654  70.0010  97.6178 0002673 248.1270 111.9604 14.98331802 45331,6950.187,96.107,573.91,570.195,0.0
55654.0,STARLINK-5070,PAYLOAD,2023-12-09 12:24:35,14.98327012,0.000286,70.0003,95.0924,258.2077,101.8761,1.1533e-05,4.5e-07,0.0,0 STARLINK-5070,1 55654U 23021AC  23343.51707931  .00000045  00000-0  11533-4 0  9997,2 55654  70.0003  95.0924 0002860 258.2077 101.8761 14.98327012 45788,6950.202,96.107,574.055,570.079,0.0
55654.0,STARLINK-5070,PAYLOAD,2023-12-09 17:12:59,14.98327657,0.0003066,69.9999,94.587,266.1027,93.9781,1.7729e-05,1.19e-06,0.0,0 STARLINK-5070,1 55654U 23021AC  23343.71735936  .00000119  00000-0  17729-4 0  9990,2 55654  69.9999  94.5870 0003066 266.1027  93.9781 14.98327657 45514,6950.2,96.107,574.196,569.934,0.0
55654.0,STARLINK-5070,PAYLOAD,2023-12-10 14:02:44,14.98330377,0.000306,69.9999,92.3984,265.9264,94.1545,4.8945e-06,-3.5e-07,0.0,0 STARLINK-5070,1 55654U 23021AC  23344.58523811 -.00000035  00000-0  48945-5 0  9996,2 55654  69.9999  92.3984 0003060 265.9264  94.1545 14.98330377 45941,6950.192,96.107,574.183,569.93,0.0
55654.0,STARLINK-5070,PAYLOAD,2023-12-10 17:15:00,14.98331778,0.0003031,70.0,92.062,265.268,94.8132,2.0788e-05,1.55e-06,0.0,0 STARLINK-5070,1 55654U 23021AC  23344.71875658  .00000155  00000-0  20788-4 0  9996,2 55654  70.0000  92.0620 0003031 265.2680  94.8132 14.98331778 45668,6950.187,96.107,574.159,569.946,0.0
55654.0,STARLINK-5070,PAYLOAD,2023-12-11 14:04:45,14.98331543,0.0003,70.0001,89.8744,263.5646,96.5172,3.1761e-05,2.86e-06,0.0,0 STARLINK-5070,1 55654U 23021AC  23345.58663531  .00000286  00000-0  31761-4 0  9995,2 55654  70.0001  89.8744 0003000 263.5646  96.5172 14.98331543 46090,6950.188,96.107,574.138,569.968,0.0
